[
    {
        "Altitude(m)": 611965.1972268821,
        "Argument of Periapsis(deg)": 0.0,
        "Eccentricity": 0.0,
        "Inclination(deg)": 60.0,
        "Latitude(deg)": 59.140197548100595,
        "Longitude(deg)": -166.0300221884016,
        "Mean Anomaly(deg)": 81.8182,
        "RAAN(deg)": 220.00000000000003,
        "Satellite Name": "Test1 973",
        "Satellite Number": 973,
        "Semi-Major Axis(m)": 6980739.136638005,
        "Time(s)": 0
    },
    {
        "Altitude(m)": 611995.822073778,
        "Argument of Periapsis(deg)": 0.00010418945913296404,
        "Eccentricity": 0.0,
        "Inclination(deg)": 60.0,
        "Latitude(deg)": 59.283295629707666,
        "Longitude(deg)": -164.8966579359957,
        "Mean Anomaly(deg)": 82.43830614546181,
        "RAAN(deg)": 219.99957995086027,
        "Satellite Name": "Test1 973",
        "Satellite Number": 973,
        "Semi-Major Axis(m)": 6980739.136638005,
        "Time(s)": 10
    },
    {
        "Altitude(m)": 612024.1060331145,
        "Argument of Periapsis(deg)": 0.0002083789182659281,
        "Eccentricity": 0.0,
        "Inclination(deg)": 60.0,
        "Latitude(deg)": 59.41571163392611,
        "Longitude(deg)": -163.75377027125367,
        "Mean Anomaly(deg)": 83.05841229092364,
        "RAAN(deg)": 219.9991599017205,
        "Satellite Name": "Test1 973",
        "Satellite Number": 973,
        "Semi-Major Axis(m)": 6980739.136638005,
        "Time(s)": 20
    },
    {
        "Altitude(m)": 612050.0328863413,
        "Argument of Periapsis(deg)": 0.00031256837739889213,
        "Eccentricity": 0.0,
        "Inclination(deg)": 60.0,
        "Latitude(deg)": 59.537306137664324,
        "Longitude(deg)": -162.60198720766175,
        "Mean Anomaly(deg)": 83.67851843638549,
        "RAAN(deg)": 219.99873985258077,
        "Satellite Name": "Test1 973",
        "Satellite Number": 973,
        "Semi-Major Axis(m)": 6980739.136638005,
        "Time(s)": 30
    },
    {
        "Altitude(m)": 612073.5877751611,
        "Argument of Periapsis(deg)": 0.0004167578365318562,
        "Eccentricity": 0.0,
        "Inclination(deg)": 60.0,
        "Latitude(deg)": 59.647948974234005,
        "Longitude(deg)": -161.44197237387525,
        "Mean Anomaly(deg)": 84.29862458184732,
        "RAAN(deg)": 219.99831980344106,
        "Satellite Name": "Test1 973",
        "Satellite Number": 973,
        "Semi-Major Axis(m)": 6980739.136638005,
        "Time(s)": 40
    },
    {
        "Altitude(m)": 612094.7572085349,
        "Argument of Periapsis(deg)": 0.0005209472956648203,
        "Eccentricity": 0.0,
        "Inclination(deg)": 60.0,
        "Latitude(deg)": 59.74751988648726,
        "Longitude(deg)": -160.2744241547182,
        "Mean Anomaly(deg)": 84.91873072730917,
        "RAAN(deg)": 219.9978997543013,
        "Satellite Name": "Test1 973",
        "Satellite Number": 973,
        "Semi-Major Axis(m)": 6980739.136638005,
        "Time(s)": 50
    },
    {
        "Altitude(m)": 612113.5290690372,
        "Argument of Periapsis(deg)": 0.0006251367547977843,
        "Eccentricity": 0.0,
        "Inclination(deg)": 60.0,
        "Latitude(deg)": 59.835909146386115,
        "Longitude(deg)": -159.10007298638922,
        "Mean Anomaly(deg)": 85.538836872771,
        "RAAN(deg)": 219.99747970516154,
        "Satellite Name": "Test1 973",
        "Satellite Number": 973,
        "Semi-Major Axis(m)": 6980739.136638005,
        "Time(s)": 60
    },
    {
        "Altitude(m)": 612129.8926185669,
        "Argument of Periapsis(deg)": 0.0007293262139307483,
        "Eccentricity": 0.0,
        "Inclination(deg)": 60.0,
        "Latitude(deg)": 59.91301813394392,
        "Longitude(deg)": -157.91967832930075,
        "Mean Anomaly(deg)": 86.15894301823285,
        "RAAN(deg)": 219.9970596560218,
        "Satellite Name": "Test1 973",
        "Satellite Number": 973,
        "Semi-Major Axis(m)": 6980739.136638005,
        "Time(s)": 70
    },
    {
        "Altitude(m)": 612143.8385034023,
        "Argument of Periapsis(deg)": 0.0008335156730637124,
        "Eccentricity": 0.0,
        "Inclination(deg)": 60.0,
        "Latitude(deg)": 59.97875986871622,
        "Longitude(deg)": -156.73402684757747,
        "Mean Anomaly(deg)": 86.77904916369468,
        "RAAN(deg)": 219.9966396068821,
        "Satellite Name": "Test1 973",
        "Satellite Number": 973,
        "Semi-Major Axis(m)": 6980739.136638005,
        "Time(s)": 80
    },
    {
        "Altitude(m)": 612155.3587586269,
        "Argument of Periapsis(deg)": 0.0009377051321966765,
        "Eccentricity": 0.0,
        "Inclination(deg)": 60.0,
        "Latitude(deg)": 60.03305948737036,
        "Longitude(deg)": -155.5439287912964,
        "Mean Anomaly(deg)": 87.39915530915648,
        "RAAN(deg)": 219.9962195577423,
        "Satellite Name": "Test1 973",
        "Satellite Number": 973,
        "Semi-Major Axis(m)": 6980739.136638005,
        "Time(s)": 90
    },
    {
        "Altitude(m)": 612164.4468118482,
        "Argument of Periapsis(deg)": 0.0010418945913296407,
        "Eccentricity": 0.0,
        "Inclination(deg)": 60.0,
        "Latitude(deg)": 60.07585466136845,
        "Longitude(deg)": -154.3502141216405,
        "Mean Anomaly(deg)": 88.0192614546183,
        "RAAN(deg)": 219.9957995086026,
        "Satellite Name": "Test1 973",
        "Satellite Number": 973,
        "Semi-Major Axis(m)": 6980739.136638005,
        "Time(s)": 100
    },
    {
        "Altitude(m)": 612171.0974863181,
        "Argument of Periapsis(deg)": 0.0011460840504626045,
        "Eccentricity": 0.0,
        "Inclination(deg)": 60.0,
        "Latitude(deg)": 60.10709594942489,
        "Longitude(deg)": -153.15372992424585,
        "Mean Anomaly(deg)": 88.6393676000801,
        "RAAN(deg)": 219.99537945946284,
        "Satellite Name": "Test1 973",
        "Satellite Number": 973,
        "Semi-Major Axis(m)": 6980739.136638005,
        "Time(s)": 110
    },
    {
        "Altitude(m)": 612175.3070033542,
        "Argument of Periapsis(deg)": 0.0012502735095955685,
        "Eccentricity": 0.0,
        "Inclination(deg)": 60.0,
        "Latitude(deg)": 60.126747080137356,
        "Longitude(deg)": -151.95533612198355,
        "Mean Anomaly(deg)": 89.25947374554194,
        "RAAN(deg)": 219.99495941032308,
        "Satellite Name": "Test1 973",
        "Satellite Number": 973,
        "Semi-Major Axis(m)": 6980739.136638005,
        "Time(s)": 120
    },
    {
        "Altitude(m)": 612177.0729841188,
        "Argument of Periapsis(deg)": 0.0013544629687285324,
        "Eccentricity": 0.0,
        "Inclination(deg)": 60.0,
        "Latitude(deg)": 60.13478516105413,
        "Longitude(deg)": -150.75590104095087,
        "Mean Anomaly(deg)": 89.87957989100379,
        "RAAN(deg)": 219.99453936118334,
        "Satellite Name": "Test1 973",
        "Satellite Number": 973,
        "Semi-Major Axis(m)": 6980739.136638005,
        "Time(s)": 130
    },
    {
        "Altitude(m)": 612176.3944507404,
        "Argument of Periapsis(deg)": 0.0014586524278614966,
        "Eccentricity": 0.0,
        "Inclination(deg)": 60.0,
        "Latitude(deg)": 60.13120081137896,
        "Longitude(deg)": -149.55629838654798,
        "Mean Anomaly(deg)": 90.49968603646563,
        "RAAN(deg)": 219.99411931204364,
        "Satellite Name": "Test1 973",
        "Satellite Number": 973,
        "Semi-Major Axis(m)": 6980739.136638005,
        "Time(s)": 140
    },
    {
        "Altitude(m)": 612173.2718267671,
        "Argument of Periapsis(deg)": 0.0015628418869944607,
        "Eccentricity": 0.0,
        "Inclination(deg)": 60.0,
        "Latitude(deg)": 60.11599821651799,
        "Longitude(deg)": -148.35740265010864,
        "Mean Anomaly(deg)": 91.11979218192747,
        "RAAN(deg)": 219.99369926290387,
        "Satellite Name": "Test1 973",
        "Satellite Number": 973,
        "Semi-Major Axis(m)": 6980739.136638005,
        "Time(s)": 150
    },
    {
        "Altitude(m)": 612167.7069369629,
        "Argument of Periapsis(deg)": 0.0016670313461274247,
        "Eccentricity": 0.0,
        "Inclination(deg)": 60.0,
        "Latitude(deg)": 60.08919510373121,
        "Longitude(deg)": -147.16008450638984,
        "Mean Anomaly(deg)": 91.7398983273893,
        "RAAN(deg)": 219.9932792137641,
        "Satellite Name": "Test1 973",
        "Satellite Number": 973,
        "Semi-Major Axis(m)": 6980739.136638005,
        "Time(s)": 160
    },
    {
        "Altitude(m)": 612159.7030064495,
        "Argument of Periapsis(deg)": 0.0017712208052603888,
        "Eccentricity": 0.0,
        "Inclination(deg)": 60.0,
        "Latitude(deg)": 60.05082263922167,
        "Longitude(deg)": -145.9652077624202,
        "Mean Anomaly(deg)": 92.36000447285114,
        "RAAN(deg)": 219.99285916462438,
        "Satellite Name": "Test1 973",
        "Satellite Number": 973,
        "Semi-Major Axis(m)": 6980739.136638005,
        "Time(s)": 170
    },
    {
        "Altitude(m)": 612149.264659182,
        "Argument of Periapsis(deg)": 0.001875410264393353,
        "Eccentricity": 0.0,
        "Inclination(deg)": 60.0,
        "Latitude(deg)": 60.000925248049136,
        "Longitude(deg)": -144.7736248787646,
        "Mean Anomaly(deg)": 92.98011061831299,
        "RAAN(deg)": 219.99243911548467,
        "Satellite Name": "Test1 973",
        "Satellite Number": 973,
        "Semi-Major Axis(m)": 6980739.136638005,
        "Time(s)": 180
    },
    {
        "Altitude(m)": 612136.3979157594,
        "Argument of Periapsis(deg)": 0.0019795997235263173,
        "Eccentricity": 0.0,
        "Inclination(deg)": 60.0,
        "Latitude(deg)": 59.93956035929105,
        "Longitude(deg)": -143.58617262103772,
        "Mean Anomaly(deg)": 93.60021676377477,
        "RAAN(deg)": 219.9920190663449,
        "Satellite Name": "Test1 973",
        "Satellite Number": 973,
        "Semi-Major Axis(m)": 6980739.136638005,
        "Time(s)": 190
    }
]